STARLINK-36551          
1 67493U 26012A   26046.50002314 -.01740989  00000+0 -60076-1 0  9992
2 67493  43.0000  80.1258 0001019 268.8525  91.0104 15.32557695  5502
STARLINK-36396          
1 67494U 26012B   26046.46977864  .00098925  00000+0  16692-2 0  9998
2 67494  43.0007  80.7731 0000698 245.2474 114.8313 15.50607452  4351
STARLINK-36550          
1 67495U 26012C   26046.50002314 -.01880132  00000+0 -50640-1 0  9995
2 67495  43.0005  80.2023 0001110 273.7016  55.8497 15.40425965  5508
STARLINK-36534          
1 67496U 26012D   26046.50002314 -.01773700  00000+0 -53279-1 0  9999
2 67496  43.0002  80.0016 0001411 279.9064 130.6620 15.36926479  5445
STARLINK-36555          
1 67497U 26012E   26046.50002314 -.01826108  00000+0 -55644-1 0  9999
2 67497  43.0010  80.0296 0001492 273.7126 125.5895 15.36584058  5502
STARLINK-36081          
1 67498U 26012F   26046.50002314 -.01842588  00000+0 -44641-1 0  9995
2 67498  43.0012  80.1426 0001363 277.1821  76.8225 15.43493323  5448
STARLINK-36558          
1 67499U 26012G   26046.50002314 -.01844244  00000+0 -43390-1 0  9997
2 67499  43.0003  80.1238 0001303 275.7111  85.6716 15.44353421  5505
STARLINK-36557          
1 67500U 26012H   26046.50002314 -.01654332  00000+0 -52803-1 0  9996
2 67500  43.0005  79.8072 0001398 280.5176 208.0282 15.34831652  5505
STARLINK-36433          
1 67501U 26012J   26046.50002314 -.01814365  00000+0 -57499-1 0  9997
2 67501  42.9993  79.7604 0001296 298.9261 208.3242 15.35354244  5502
STARLINK-36554          
1 67502U 26012K   26046.50002314 -.01838308  00000+0 -44637-1 0  9991
2 67502  43.0000  79.8785 0001247 291.9763 168.2739 15.43421194  5447
STARLINK-36552          
1 67503U 26012L   26046.50002314 -.01804738  00000+0 -55311-1 0  9993
2 67503  43.0001  79.6390 0001129 306.6123 249.9279 15.36370176  5500
STARLINK-36512          
1 67504U 26012M   26046.50002314 -.01872731  00000+0 -49807-1 0  9995
2 67504  43.0006  79.6485 0001008 304.1538 248.7606 15.40791472  5502
STARLINK-36545          
1 67505U 26012N   26046.50002314 -.01975343  00000+0 -52141-1 0  9994
2 67505  43.0007  79.5961 0000527 299.3552 274.8872 15.41205892  5500
STARLINK-36553          
1 67506U 26012P   26046.50002314 -.01835612  00000+0 -50159-1 0  9996
2 67506  42.9999  79.5214 0001002 285.6936 318.8483 15.39914278  5502
STARLINK-36521          
1 67507U 26012Q   26046.50002314 -.01819996  00000+0 -48882-1 0  9994
2 67507  42.9997  79.5003 0001088 282.0495 331.0585 15.40402472  5502
STARLINK-36526          
1 67508U 26012R   26046.50002314 -.01809698  00000+0 -47386-1 0  9991
2 67508  42.9998  79.4708 0001006 290.2358 334.5060 15.41143199  5509
STARLINK-36541          
1 67509U 26012S   26045.42889574  .00071950  00000+0  12184-2 0  9991
2 67509  42.9986  86.7186 0000543 353.0224   7.0629 15.50639519  4196
STARLINK-36549          
1 67510U 26012T   26046.50002314 -.01809680  00000+0 -51603-1 0  9992
2 67510  43.0002  79.4023 0000960 284.5388   4.3202 15.38581762  5459
STARLINK-36540          
1 67511U 26012U   26045.49165125  .00095249  00000+0  16087-2 0  9993
2 67511  43.0023  86.3251 0003376 283.9420  76.1065 15.50592337  4207
STARLINK-36538          
1 67512U 26012V   26046.50002314 -.01779882  00000+0 -61981-1 0  9994
2 67512  43.0002  79.9777 0001380 281.8082 135.6351 15.32341838  5501
STARLINK-36531          
1 67513U 26012W   26046.50002314 -.01796131  00000+0 -59809-1 0  9997
2 67513  42.9998  79.8554 0001365 292.6667 174.5551 15.33779557  5449
STARLINK-36530          
1 67514U 26012X   26046.50002314 -.01800180  00000+0 -57823-1 0  9992
2 67514  43.0002  79.8664 0001438 292.1603 170.8639 15.34908821  5441
STARLINK-36543          
1 67515U 26012Y   26046.50002314 -.01798474  00000+0 -55592-1 0  9996
2 67515  43.0004  79.8822 0001534 291.9533 164.6704 15.36091945  5442
STARLINK-36537          
1 67516U 26012Z   26046.50002314 -.01816062  00000+0 -56015-1 0  9992
2 67516  43.0003  79.7103 0001221 303.0021 222.8085 15.36193714  5449
STARLINK-36544          
1 67517U 26012AA  26046.50002314 -.01722778  00000+0 -56107-1 0  9995
2 67517  43.0000  79.7271 0001504 296.2547 223.1671 15.34332209  5507
STARLINK-36412          
1 67518U 26012AB  26046.50002314 -.01798104  00000+0 -50124-1 0  9995
2 67518  42.9997  79.5777 0000977 303.3554 276.4816 15.39246269  5441
STARLINK-36415          
1 67519U 26012AC  26046.50002314 -.01835867  00000+0 -49808-1 0  9991
2 67519  42.9998  79.5273 0000912 304.6806 295.1140 15.40130373  5669
STARLINK-36547          
1 67520U 26012AD  26046.50002314 -.01885320  00000+0 -53591-1 0  9996
2 67520  42.9999  79.6112 0001161 293.3021 272.4296 15.38814442  5444
STARLINK-36444          
1 67521U 26012AE  26046.50002314 -.01865189  00000+0 -50477-1 0  9998
2 67521  43.0006  79.7039 0001360 301.9850 226.6412 15.40254719  5441
HULIANWANG DIGUI-146    
1 67522U 26013A   26042.34729179 -.00000041  00000+0  98639-4 0  9994
2 67522  50.0087  93.2680 0003231 354.9738   5.1123 13.78804724  3212
HULIANWANG DIGUI-147    
1 67523U 26013B   26043.28836318 -.00000048  00000+0  92853-4 0  9992
2 67523  50.0062  89.5622 0001508   9.6650 350.4272 13.77597803  3343
HULIANWANG DIGUI-148    
1 67524U 26013C   26043.13851483 -.00000027  00000+0  11329-3 0  9992
2 67524  50.0082  90.1254 0000399 334.8113  25.2761 13.78242664  3320
HULIANWANG DIGUI-149    
1 67525U 26013D   26043.06238327 -.00000033  00000+0  10607-3 0  9996
2 67525  50.0083  90.3862 0001188  75.5776 284.5250 13.78784861  3312
HULIANWANG DIGUI-150    
1 67526U 26013E   26043.27295651 -.00000038  00000+0  10159-3 0  9990
2 67526  50.0069  89.4842 0002155   6.5718 353.5203 13.78631848  3365
HULIANWANG DIGUI-151    
1 67527U 26013F   26043.26750412 -.00000013  00000+0  12371-3 0  9992
2 67527  50.0190  89.4720 0005437  14.0872 346.0173 13.80322384  3343
HULIANWANG DIGUI-152    
1 67528U 26013G   26043.05356157 -.00000020  00000+0  11798-3 0  9998
2 67528  50.0004  90.3132 0002755 114.3878 245.7303 13.79260730  3317
HULIANWANG DIGUI-153    
1 67529U 26013H   26043.26406470 -.00000125  00000+0  16334-4 0  9994
2 67529  50.0072  89.4374 0001301 322.0954  37.9849 13.79514550  3339
HULIANWANG DIGUI-154    
1 67530U 26013J   26043.33376307  .00000033  00000+0  16974-3 0  9995
2 67530  50.0011  89.1466 0004223 185.3162 174.7688 13.79360636  3346
CZ-12 R/B               
1 67531U 26013K   26044.30903653 -.00000106  00000+0  24917-4 0  9993
2 67531  49.9940  81.6091 0069052 213.8608 145.7882 14.14458025  3534
STARLINK-36587          
1 67532U 26014A   26046.20397649  .00369165  00000+0  18378-2 0  9992
2 67532  97.2831 290.0273 0001906 125.3375 234.8071 15.80933000  5032
STARLINK-36417          
1 67533U 26014B   26046.17427613  .00129578  00000+0  85592-3 0  9999
2 67533  97.2845 289.9136 0001499  57.6694 302.4716 15.75205655  5020
STARLINK-36576          
1 67534U 26014C   26046.50002314 -.01877837  00000+0 -12936-1 0  9995
2 67534  97.2838 290.3428 0001816  98.1517 149.3337 15.77642371  5120
STARLINK-36574          
1 67535U 26014D   26046.20130068  .00343636  00000+0  17149-2 0  9995
2 67535  97.2834 290.0315 0000715 138.3448 221.7875 15.80943532  5035
STARLINK-36572          
1 67536U 26014E   26046.22404189  .00192010  00000+0  12572-2 0  9999
2 67536  97.2845 289.9990 0002422  58.6362 301.5140 15.75230327  5037
STARLINK-36561          
1 67537U 26014F   26046.23002227  .00123187  00000+0  81411-3 0  9996
2 67537  97.2850 289.9891 0001591  97.8309 262.3136 15.75212378  5031
STARLINK-36397          
1 67538U 26014G   26046.17039401  .00225016  00000+0  14666-2 0  9995
2 67538  97.2849 289.9176 0001659 103.7372 256.4078 15.75243964  5021
STARLINK-36573          
1 67539U 26014H   26046.19720197  .00216119  00000+0  10982-2 0  9998
2 67539  97.2835 290.0352 0001431 100.6520 259.4910 15.80877827  5031
STARLINK-36585          
1 67540U 26014J   26046.22580722  .00257117  00000+0  16688-2 0  9994
2 67540  97.2853 289.9931 0002810  64.1618 295.9937 15.75250715  5036
STARLINK-36579          
1 67541U 26014K   26046.21804483  .00237604  00000+0  15462-2 0  9995
2 67541  97.2843 290.0070 0002612  65.2099 294.9438 15.75244131  5038
STARLINK-35934          
1 67542U 26014L   26046.19356770  .00281241  00000+0  14158-2 0  9991
2 67542  97.2836 290.0408 0001882  85.3654 274.7829 15.80914238  5021
STARLINK-36581          
1 67543U 26014M   26046.50002314 -.01820222  00000+0 -12735-1 0  9998
2 67543  97.2840 290.3661 0001663  97.9012 206.4171 15.77197275  5128
STARLINK-36565          
1 67544U 26014N   26046.50002314 -.00001528  00000+0 -93809-5 0  9993
2 67544  97.2843 290.3531 0001548  74.2779 197.8601 15.75185131  5125
STARLINK-36583          
1 67545U 26014P   26046.22192231  .00168700  00000+0  11078-2 0  9990
2 67545  97.2850 289.9994 0002006  90.2566 269.8929 15.75228088  5035
STARLINK-36580          
1 67546U 26014Q   26046.20392592  .00257272  00000+0  16692-2 0  9991
2 67546  97.2845 290.0249 0001733  73.7474 286.3982 15.75260275  5033
STARLINK-36584          
1 67547U 26014R   26046.44139872 -.00613333  00000+0 -36517-2 0  9992
2 67547  97.2854 290.3086 0002651  22.3996 337.7387 15.79445016  5071
STARLINK-36586          
1 67548U 26014S   26046.18654859  .00344443  00000+0  17201-2 0  9991
2 67548  97.2844 290.0502 0001257  81.2761 278.8650 15.80927914  5034
STARLINK-36564          
1 67549U 26014T   26046.21204139  .00281642  00000+0  18214-2 0  9994
2 67549  97.2845 290.0139 0002034  68.0162 292.1319 15.75267574  4970
STARLINK-36563          
1 67550U 26014U   26046.20780898  .00274288  00000+0  17759-2 0  9997
2 67550  97.2844 290.0193 0002279  79.6090 280.5432 15.75260838  5031
STARLINK-36566          
1 67551U 26014V   26046.20569140  .00272772  00000+0  17662-2 0  9992
2 67551  97.2844 290.0222 0002108  74.2077 285.9421 15.75263491  5026
